{
 "generated_at": "2026-07-10T08:23:00Z",
 "sources": [
  {
   "name": "CelesTrak",
   "url": "https://celestrak.org/NORAD/elements/",
   "license": "frei verfügbar; Attribution. Ursprünglich USSPACECOM/Space-Track."
  },
  {
   "name": "GCAT (J. McDowell, planet4589.org)",
   "url": "https://planet4589.org/space/gcat/",
   "license": "CC-BY 4.0"
  }
 ],
 "satellites": [
  {
   "norad": 68485,
   "name": "CAPELLA-20 (ACADIA-10)",
   "intl": "2026-067BX",
   "group": "sar",
   "gcat": {
    "class": "B",
    "category": "IMG-R",
    "owner": "CAPSP",
    "state": "US"
   },
   "omm": {
    "OBJECT_NAME": "CAPELLA-20 (ACADIA-10)",
    "OBJECT_ID": "2026-067BX",
    "EPOCH": "2026-07-08T21:25:53.562720",
    "MEAN_MOTION": 14.91798857,
    "ECCENTRICITY": 0.00011903,
    "INCLINATION": 97.7579,
    "RA_OF_ASC_NODE": 147.8414,
    "ARG_OF_PERICENTER": 153.185,
    "MEAN_ANOMALY": 206.943,
    "EPHEMERIS_TYPE": 0,
    "CLASSIFICATION_TYPE": "U",
    "NORAD_CAT_ID": 68485,
    "ELEMENT_SET_NO": 999,
    "REV_AT_EPOCH": 1496,
    "BSTAR": 0.00043769089,
    "MEAN_MOTION_DOT": 0.0000436,
    "MEAN_MOTION_DDOT": 0
   }
  },
  {
   "norad": 40718,
   "name": "CARBONITE 1 (CBNT-1)",
   "intl": "2015-032D",
   "group": "resource",
   "gcat": {
    "class": "B",
    "category": "IMG",
    "owner": "SSTLA",
    "state": "UK"
   },
   "omm": {
    "OBJECT_NAME": "CARBONITE 1 (CBNT-1)",
    "OBJECT_ID": "2015-032D",
    "EPOCH": "2026-07-09T20:14:59.378784",
    "MEAN_MOTION": 14.83657681,
    "ECCENTRICITY": 0.0013447,
    "INCLINATION": 97.6523,
    "RA_OF_ASC_NODE": 7.9637,
    "ARG_OF_PERICENTER": 215.6538,
    "MEAN_ANOMALY": 144.378,
    "EPHEMERIS_TYPE": 0,
    "CLASSIFICATION_TYPE": "U",
    "NORAD_CAT_ID": 40718,
    "ELEMENT_SET_NO": 999,
    "REV_AT_EPOCH": 59270,
    "BSTAR": 0.00016898,
    "MEAN_MOTION_DOT": 0.00001346,
    "MEAN_MOTION_DDOT": 0
   }
  },
  {
   "norad": 67397,
   "name": "CARBSAR",
   "intl": "2026-004AL",
   "group": "sar",
   "gcat": {
    "class": "B",
    "category": "IMG-R",
    "owner": "SSTL",
    "state": "UK"
   },
   "omm": {
    "OBJECT_NAME": "CARBSAR",
    "OBJECT_ID": "2026-004AL",
    "EPOCH": "2026-07-09T18:15:18.921888",
    "MEAN_MOTION": 15.19863686,
    "ECCENTRICITY": 0.0003719,
    "INCLINATION": 97.4546,
    "RA_OF_ASC_NODE": 189.6555,
    "ARG_OF_PERICENTER": 248.3302,
    "MEAN_ANOMALY": 111.7537,
    "EPHEMERIS_TYPE": 0,
    "CLASSIFICATION_TYPE": "U",
    "NORAD_CAT_ID": 67397,
    "ELEMENT_SET_NO": 999,
    "REV_AT_EPOCH": 2719,
    "BSTAR": 0.00019293,
    "MEAN_MOTION_DOT": 0.00004071,
    "MEAN_MOTION_DDOT": 0
   }
  },
  {
   "norad": 32783,
   "name": "CARTOSAT-2A",
   "intl": "2008-021A",
   "group": "resource",
   "gcat": {
    "class": "D",
    "category": "IMG",
    "owner": "ISRO",
    "state": "IN"
   },
   "omm": {
    "OBJECT_NAME": "CARTOSAT-2A",
    "OBJECT_ID": "2008-021A",
    "EPOCH": "2026-07-09T20:12:43.064640",
    "MEAN_MOTION": 14.79273309,
    "ECCENTRICITY": 0.0012877,
    "INCLINATION": 97.7624,
    "RA_OF_ASC_NODE": 238.7763,
    "ARG_OF_PERICENTER": 43.3728,
    "MEAN_ANOMALY": 316.8495,
    "EPHEMERIS_TYPE": 0,
    "CLASSIFICATION_TYPE": "U",
    "NORAD_CAT_ID": 32783,
    "ELEMENT_SET_NO": 999,
    "REV_AT_EPOCH": 98215,
    "BSTAR": 0.000090847,
    "MEAN_MOTION_DOT": 0.00000626,
    "MEAN_MOTION_DDOT": 0
   }
  },
  {
   "norad": 36795,
   "name": "CARTOSAT-2B",
   "intl": "2010-035A",
   "group": "resource",
   "gcat": {
    "class": "D",
    "category": "IMG",
    "owner": "ISRO",
    "state": "IN"
   },
   "omm": {
    "OBJECT_NAME": "CARTOSAT-2B",
    "OBJECT_ID": "2010-035A",
    "EPOCH": "2026-07-09T20:58:35.999328",
    "MEAN_MOTION": 14.78611521,
    "ECCENTRICITY": 0.0012446,
    "INCLINATION": 97.9943,
    "RA_OF_ASC_NODE": 241.2773,
    "ARG_OF_PERICENTER": 114.4233,
    "MEAN_ANOMALY": 245.8278,
    "EPHEMERIS_TYPE": 0,
    "CLASSIFICATION_TYPE": "U",
    "NORAD_CAT_ID": 36795,
    "ELEMENT_SET_NO": 999,
    "REV_AT_EPOCH": 86320,
    "BSTAR": -0.000014781,
    "MEAN_MOTION_DOT": -0.00000161,
    "MEAN_MOTION_DDOT": 0
   }
  },
  {
   "norad": 41599,
   "name": "CARTOSAT-2C",
   "intl": "2016-040A",
   "group": "resource",
   "gcat": {
    "class": "D",
    "category": "IMG",
    "owner": "ISRO",
    "state": "IN"
   },
   "omm": {
    "OBJECT_NAME": "CARTOSAT-2C",
    "OBJECT_ID": "2016-040A",
    "EPOCH": "2026-07-09T20:23:31.299648",
    "MEAN_MOTION": 15.19235223,
    "ECCENTRICITY": 0.0009917,
    "INCLINATION": 97.4471,
    "RA_OF_ASC_NODE": 250.5144,
    "ARG_OF_PERICENTER": 60.8319,
    "MEAN_ANOMALY": 299.3907,
    "EPHEMERIS_TYPE": 0,
    "CLASSIFICATION_TYPE": "U",
    "NORAD_CAT_ID": 41599,
    "ELEMENT_SET_NO": 999,
    "REV_AT_EPOCH": 55715,
    "BSTAR": 0.000081656,
    "MEAN_MOTION_DOT": 0.00001653,
    "MEAN_MOTION_DDOT": 0
   }
  },
  {
   "norad": 41948,
   "name": "CARTOSAT-2D",
   "intl": "2017-008A",
   "group": "resource",
   "gcat": {
    "class": "D",
    "category": "IMG",
    "owner": "ISRO",
    "state": "IN"
   },
   "omm": {
    "OBJECT_NAME": "CARTOSAT-2D",
    "OBJECT_ID": "2017-008A",
    "EPOCH": "2026-07-09T21:09:20.711808",
    "MEAN_MOTION": 15.19257957,
    "ECCENTRICITY": 0.0005566,
    "INCLINATION": 97.4099,
    "RA_OF_ASC_NODE": 249.7618,
    "ARG_OF_PERICENTER": 153.0475,
    "MEAN_ANOMALY": 207.105,
    "EPHEMERIS_TYPE": 0,
    "CLASSIFICATION_TYPE": "U",
    "NORAD_CAT_ID": 41948,
    "ELEMENT_SET_NO": 999,
    "REV_AT_EPOCH": 52102,
    "BSTAR": 0.000099505,
    "MEAN_MOTION_DOT": 0.0000203,
    "MEAN_MOTION_DDOT": 0
   }
  },
  {
   "norad": 42767,
   "name": "CARTOSAT-2E",
   "intl": "2017-036C",
   "group": "resource",
   "gcat": {
    "class": "D",
    "category": "IMG",
    "owner": "ISRO",
    "state": "IN"
   },
   "omm": {
    "OBJECT_NAME": "CARTOSAT-2E",
    "OBJECT_ID": "2017-036C",
    "EPOCH": "2026-07-09T19:59:56.364864",
    "MEAN_MOTION": 15.19227395,
    "ECCENTRICITY": 0.0002721,
    "INCLINATION": 97.4267,
    "RA_OF_ASC_NODE": 250.2611,
    "ARG_OF_PERICENTER": 211.1833,
    "MEAN_ANOMALY": 148.9241,
    "EPHEMERIS_TYPE": 0,
    "CLASSIFICATION_TYPE": "U",
    "NORAD_CAT_ID": 42767,
    "ELEMENT_SET_NO": 999,
    "REV_AT_EPOCH": 50158,
    "BSTAR": 0.000094628,
    "MEAN_MOTION_DOT": 0.00001925,
    "MEAN_MOTION_DDOT": 0
   }
  },
  {
   "norad": 43111,
   "name": "CARTOSAT-2F",
   "intl": "2018-004A",
   "group": "resource",
   "gcat": {
    "class": "D",
    "category": "IMG",
    "owner": "ISRO",
    "state": "IN"
   },
   "omm": {
    "OBJECT_NAME": "CARTOSAT-2F",
    "OBJECT_ID": "2018-004A",
    "EPOCH": "2026-07-09T20:46:53.831712",
    "MEAN_MOTION": 15.19241385,
    "ECCENTRICITY": 0.0002286,
    "INCLINATION": 97.4777,
    "RA_OF_ASC_NODE": 250.2777,
    "ARG_OF_PERICENTER": 144.5233,
    "MEAN_ANOMALY": 215.6154,
    "EPHEMERIS_TYPE": 0,
    "CLASSIFICATION_TYPE": "U",
    "NORAD_CAT_ID": 43111,
    "ELEMENT_SET_NO": 999,
    "REV_AT_EPOCH": 47077,
    "BSTAR": 0.000063753,
    "MEAN_MOTION_DOT": 0.00001275,
    "MEAN_MOTION_DDOT": 0
   }
  },
  {
   "norad": 44804,
   "name": "CARTOSAT-3",
   "intl": "2019-081A",
   "group": "resource",
   "gcat": {
    "class": "D",
    "category": "IMG",
    "owner": "ISRO",
    "state": "IN"
   },
   "omm": {
    "OBJECT_NAME": "CARTOSAT-3",
    "OBJECT_ID": "2019-081A",
    "EPOCH": "2026-07-09T21:07:28.795296",
    "MEAN_MOTION": 15.19300067,
    "ECCENTRICITY": 0.0013475,
    "INCLINATION": 97.4296,
    "RA_OF_ASC_NODE": 252.3809,
    "ARG_OF_PERICENTER": 77.7914,
    "MEAN_ANOMALY": 282.4829,
    "EPHEMERIS_TYPE": 0,
    "CLASSIFICATION_TYPE": "U",
    "NORAD_CAT_ID": 44804,
    "ELEMENT_SET_NO": 999,
    "REV_AT_EPOCH": 36691,
    "BSTAR": 0.00012436,
    "MEAN_MOTION_DOT": 0.00002562,
    "MEAN_MOTION_DDOT": 0
   }
  }
 ]
}
